{
  "norad_id": 62325,
  "name": "HULIANWANG DIGUI-03",
  "history": [
    {
      "epoch": "2026-04-11T19:26:51.991872Z",
      "apogee_km": 1169.3922315079935,
      "perigee_km": 1166.4417244026126,
      "latitude_deg": 2.648132926166341e-05,
      "longitude_deg": -126.20300146307994,
      "height_km": 1170.368805316174,
      "semi_major_axis_km": 7546.053977955303,
      "eccentricity": 0.0001955,
      "inclination_deg": 86.5035,
      "raan_deg": 5.5381,
      "arg_perigee_deg": 72.6708,
      "mean_anomaly_deg": 287.464,
      "mean_motion_rev_day": 13.24411371
    },
    {
      "epoch": "2026-04-13T05:53:51.951552Z",
      "apogee_km": 1169.374264439256,
      "perigee_km": 1166.4586203101917,
      "latitude_deg": 2.975319545687184e-05,
      "longitude_deg": 75.14865530851895,
      "height_km": 1170.3629956195568,
      "semi_major_axis_km": 7546.053442374723,
      "eccentricity": 0.00019319,
      "inclination_deg": 86.5035,
      "raan_deg": 5.0544,
      "arg_perigee_deg": 72.2375,
      "mean_anomaly_deg": 287.897,
      "mean_motion_rev_day": 13.24411512
    },
    {
      "epoch": "2026-04-14T19:58:26.666976Z",
      "apogee_km": 1169.3629410370222,
      "perigee_km": 1166.4697841777988,
      "latitude_deg": -7.320462251684021e-05,
      "longitude_deg": -138.09453533059673,
      "height_km": 1170.3593056625311,
      "semi_major_axis_km": 7546.05336260741,
      "eccentricity": 0.0001917,
      "inclination_deg": 86.5034,
      "raan_deg": 4.5196,
      "arg_perigee_deg": 71.9426,
      "mean_anomaly_deg": 288.1916,
      "mean_motion_rev_day": 13.24411533
    },
    {
      "epoch": "2026-04-15T19:32:42.431136Z",
      "apogee_km": 1169.356737030921,
      "perigee_km": 1166.4756539208884,
      "latitude_deg": 1.7414534293088518e-05,
      "longitude_deg": -132.95924038342733,
      "height_km": 1170.360377811534,
      "semi_major_axis_km": 7546.053195475904,
      "eccentricity": 0.0001909,
      "inclination_deg": 86.5033,
      "raan_deg": 4.1886,
      "arg_perigee_deg": 71.9162,
      "mean_anomaly_deg": 288.218,
      "mean_motion_rev_day": 13.24411577
    },
    {
      "epoch": "2026-04-16T19:06:58.173696Z",
      "apogee_km": 1169.3428274073012,
      "perigee_km": 1166.4889102123161,
      "latitude_deg": 3.511734452571939e-05,
      "longitude_deg": -127.8239596285172,
      "height_km": 1170.3599774022014,
      "semi_major_axis_km": 7546.052868809808,
      "eccentricity": 0.0001891,
      "inclination_deg": 86.5031,
      "raan_deg": 3.8575,
      "arg_perigee_deg": 71.7337,
      "mean_anomaly_deg": 288.4003,
      "mean_motion_rev_day": 13.24411663
    },
    {
      "epoch": "2026-04-17T22:18:48.647808Z",
      "apogee_km": 1169.3307554315852,
      "perigee_km": 1166.5003820341044,
      "latitude_deg": -7.467449591926557e-05,
      "longitude_deg": -177.28322927918938,
      "height_km": 1170.359264881327,
      "semi_major_axis_km": 7546.0525687328445,
      "eccentricity": 0.00018754,
      "inclination_deg": 86.503,
      "raan_deg": 3.4755,
      "arg_perigee_deg": 71.5568,
      "mean_anomaly_deg": 288.5769,
      "mean_motion_rev_day": 13.24411742
    },
    {
      "epoch": "2026-04-18T20:04:17.031072Z",
      "apogee_km": 1169.324802834968,
      "perigee_km": 1166.5055977329412,
      "latitude_deg": 3.0072897271405157e-06,
      "longitude_deg": -144.8506526360841,
      "height_km": 1170.3612588220037,
      "semi_major_axis_km": 7546.052200283954,
      "eccentricity": 0.0001868,
      "inclination_deg": 86.503,
      "raan_deg": 3.1699,
      "arg_perigee_deg": 71.5823,
      "mean_anomaly_deg": 288.5514,
      "mean_motion_rev_day": 13.24411839
    },
    {
      "epoch": "2026-04-19T19:38:32.782272Z",
      "apogee_km": 1169.319171076757,
      "perigee_km": 1166.5105305778789,
      "latitude_deg": 8.063468184098434e-05,
      "longitude_deg": -139.7154072443596,
      "height_km": 1170.3623332613113,
      "semi_major_axis_km": 7546.051850827317,
      "eccentricity": 0.0001861,
      "inclination_deg": 86.5029,
      "raan_deg": 2.8388,
      "arg_perigee_deg": 71.5718,
      "mean_anomaly_deg": 288.5619,
      "mean_motion_rev_day": 13.24411931
    },
    {
      "epoch": "2026-04-20T13:46:26.429664Z",
      "apogee_km": 1169.311843808171,
      "perigee_km": 1166.5178426526963,
      "latitude_deg": 9.698783084717197e-05,
      "longitude_deg": -52.68827561502142,
      "height_km": 1170.3625202360695,
      "semi_major_axis_km": 7546.051843230433,
      "eccentricity": 0.00018513,
      "inclination_deg": 86.5027,
      "raan_deg": 2.5841,
      "arg_perigee_deg": 71.4796,
      "mean_anomaly_deg": 288.654,
      "mean_motion_rev_day": 13.24411933
    },
    {
      "epoch": "2026-04-21T20:35:51.592992Z",
      "apogee_km": 1169.2945678145197,
      "perigee_km": 1166.5342222142235,
      "latitude_deg": -4.916538859590367e-05,
      "longitude_deg": -156.74201748179877,
      "height_km": 1170.3650827506967,
      "semi_major_axis_km": 7546.051395014371,
      "eccentricity": 0.0001829,
      "inclination_deg": 86.5026,
      "raan_deg": 2.1511,
      "arg_perigee_deg": 71.3747,
      "mean_anomaly_deg": 288.7585,
      "mean_motion_rev_day": 13.24412051
    },
    {
      "epoch": "2026-04-22T20:10:07.302720Z",
      "apogee_km": 1169.2815685663409,
      "perigee_km": 1166.5468796027317,
      "latitude_deg": -6.51471578258489e-05,
      "longitude_deg": -151.60660589135648,
      "height_km": 1170.36912052529,
      "semi_major_axis_km": 7546.0512240845355,
      "eccentricity": 0.0001812,
      "inclination_deg": 86.5025,
      "raan_deg": 1.82,
      "arg_perigee_deg": 71.3783,
      "mean_anomaly_deg": 288.7547,
      "mean_motion_rev_day": 13.24412096
    },
    {
      "epoch": "2026-04-23T12:29:13.568352Z",
      "apogee_km": 1169.271587739172,
      "perigee_km": 1166.5565185702462,
      "latitude_deg": -3.743498958989001e-05,
      "longitude_deg": -37.28208548533493,
      "height_km": 1170.374727436648,
      "semi_major_axis_km": 7546.051053154709,
      "eccentricity": 0.0001799,
      "inclination_deg": 86.5024,
      "raan_deg": 1.5908,
      "arg_perigee_deg": 71.4954,
      "mean_anomaly_deg": 288.6375,
      "mean_motion_rev_day": 13.24412141
    }
  ]
}